1 45563U 20025AJ  22365.02367436  .00005255  00000-0  37135-3 0  9990
2 45563  53.0550 275.0021 0001255  71.6414 288.4711 15.06407121149222
1 45563U 20025AJ  22365.48810186  .00004586  00000-0  32650-3 0  9998
2 45563  53.0542 272.9174 0001368  71.6567 288.4570 15.06406132149899
1 45563U 20025AJ  22365.75349504  .00002799  00000-0  20671-3 0  9993
2 45563  53.0581 271.7259 0001820  82.1638 277.9557 15.06403766149935
1 45563U 20025AJ  23001.01889945 -.00000271  00000-0  71842-6 0  9991
2 45563  53.0560 270.5339 0001460  75.5443 284.5708 15.06387288149378
1 45563U 20025AJ  23001.15158577 -.00001326  00000-0 -70123-4 0  9998
2 45563  53.0552 269.9380 0001488  75.5103 284.6051 15.06392781149994
1 45563U 20025AJ  23001.15158577 -.00001326  00000-0 -70123-4 0  9998
2 45563  53.0552 269.9380 0001488  75.5103 284.6051 15.06392781149398
1 45563U 20025AJ  23001.81506472 -.00007755  00000-0 -50264-3 0  9997
2 45563  53.0568 266.9624 0001823  81.1829 278.9367 15.06373808150098
1 45563U 20025AJ  23002.14680120 -.00003722  00000-0 -23115-3 0  9992
2 45563  53.0553 265.4696 0001564  76.4260 283.6904 15.06386821149540
1 45563U 20025AJ  23002.41218413 -.00000561  00000-0 -18774-4 0  9998
2 45563  53.0556 264.2799 0001567  78.7545 281.3620 15.06397095150185
1 45563U 20025AJ  23002.41218413 -.00000561  00000-0 -18774-4 0  9998
2 45563  53.0556 264.2799 0001567  78.7545 281.3620 15.06397095149587
1 45563U 20025AJ  23003.07566127  .00004884  00000-0  34658-3 0  9997
2 45563  53.0550 261.3012 0001464  74.0858 286.0292 15.06392690149683
1 45563U 20025AJ  23003.40739754  .00003961  00000-0  28476-3 0  9998
2 45563  53.0552 259.8120 0001588  78.9357 281.1811 15.06390639150339
1 45563U 20025AJ  23004.07086918  .00003424  00000-0  24869-3 0  9995
2 45563  53.0554 256.8341 0001592  75.4631 284.6535 15.06391470149833
1 45563U 20025AJ  23004.40259965  .00002740  00000-0  20277-3 0  9995
2 45563  53.0550 255.3447 0001468  79.8428 280.2726 15.06401329150486
1 45563U 20025AJ  23004.40259965  .00002740  00000-0  20277-3 0  9995
2 45563  53.0550 255.3447 0001468  79.8428 280.2726 15.06401329149888
1 45563U 20025AJ  23005.06605887  .00008832  00000-0  61074-3 0  9994
2 45563  53.0546 252.3666 0001536  81.6111 278.5052 15.06420462149981
1 45563U 20025AJ  23005.53047786  .00005406  00000-0  38127-3 0  9991
2 45563  53.0544 250.2819 0001352  87.0331 273.0813 15.06423971150655
1 45563U 20025AJ  23005.79586169  .00003452  00000-0  25034-3 0  9994
2 45563  53.0532 249.0897 0001537  86.8245 273.2920 15.06424238150692
1 45563U 20025AJ  23005.79586169  .00003452  00000-0  25034-3 0  9994
2 45563  53.0532 249.0897 0001537  86.8245 273.2920 15.06424238150096
1 45563U 20025AJ  23006.39298963 -.00006443  00000-0 -41413-3 0  9997
2 45563  53.0537 246.4101 0001814  81.5169 278.6025 15.06390215150187
1 45563U 20025AJ  23006.79107695 -.00001374  00000-0 -73426-4 0  9990
2 45563  53.0533 244.6227 0001425  91.2705 268.8447 15.06378468150842
1 45563U 20025AJ  23007.05646938  .00004582  00000-0  32648-3 0  9990
2 45563  53.0531 243.4307 0001493  91.2405 268.8755 15.06378122150881
1 45563U 20025AJ  23007.65359470  .00009503  00000-0  65613-3 0  9994
2 45563  53.0535 240.7500 0001388  94.5849 265.5299 15.06392674150370
1 45563U 20025AJ  23007.91898303  .00010771  00000-0  74089-3 0  9992
2 45563  53.0531 239.5598 0001457  84.0197 276.0958 15.06397918151013
1 45563U 20025AJ  23007.98532993  .00010575  00000-0  72780-3 0  9997
2 45563  53.0532 239.2619 0001440  83.8575 276.2578 15.06398654151023
1 45563U 20025AJ  23008.91418208  .00007444  00000-0  51795-3 0  9997
2 45563  53.0533 235.0917 0001440  82.8529 277.2624 15.06410133151162
1 45563U 20025AJ  23009.04687500  .00006583  00000-0  46027-3 0  9990
2 45563  53.0535 234.4962 0001407  81.4265 278.6883 15.06410120150585
1 45563U 20025AJ  23009.31226037  .00004911  00000-0  34823-3 0  9998
2 45563  53.0533 233.3049 0001414  83.0587 277.0562 15.06410360151225
1 45563U 20025AJ  23009.90938267 -.00000834  00000-0 -37084-4 0  9993
2 45563  53.0536 230.6243 0001479  85.6934 274.4223 15.06399291151313
1 45563U 20025AJ  23010.04207863  .00000482  00000-0  51237-4 0  9994
2 45563  53.0538 230.0286 0001480  85.0846 275.0312 15.06398676150731
1 45563U 20025AJ  23010.30746369  .00000822  00000-0  74101-4 0  9995
2 45563  53.0540 228.8372 0001472  85.1235 274.9922 15.06402058151375
1 45563U 20025AJ  23011.36902641 -.00000852  00000-0 -38319-4 0  9995
2 45563  53.0539 224.0721 0001551  90.0070 270.1097 15.06390431151539
1 45563U 20025AJ  23011.36902641 -.00000852  00000-0 -38319-4 0  9995
2 45563  53.0539 224.0721 0001551  90.0070 270.1097 15.06390431150932
1 45563U 20025AJ  23011.83345752 -.00000344  00000-0 -42152-5 0  9998
2 45563  53.0543 221.9871 0001482  90.6188 269.4971 15.06387227151604
1 45563U 20025AJ  23012.82866659 -.00000023  00000-0  17351-4 0  9997
2 45563  53.0543 217.5196 0001473  90.6217 269.4941 15.06387335151155
1 45563U 20025AJ  23013.29309470  .00001550  00000-0  12294-3 0  9997
2 45563  53.0542 215.4350 0001484  89.3886 270.7273 15.06389043151827
1 45563U 20025AJ  23013.82386851  .00002196  00000-0  16631-3 0  9990
2 45563  53.0542 213.0519 0001476  90.9192 269.1966 15.06394005151901
1 45563U 20025AJ  23013.82386851  .00002196  00000-0  16631-3 0  9990
2 45563  53.0542 213.0519 0001476  90.9192 269.1966 15.06394005151305
1 45563U 20025AJ  23014.81906269  .00003248  00000-0  23679-3 0  9990
2 45563  53.0541 208.5839 0001507  92.7783 267.3378 15.06407245151453
1 45563U 20025AJ  23015.21715204  .00004266  00000-0  30515-3 0  9990
2 45563  53.0516 206.7972 0002037  91.3254 268.7969 15.06399750151519
1 45563U 20025AJ  23015.54887926  .00001176  00000-0  97822-4 0  9999
2 45563  53.0529 205.3071 0001701  97.1571 262.9611 15.06406608152164
1 45563U 20025AJ  23015.81426508  .00000913  00000-0  80155-4 0  9993
2 45563  53.0535 204.1166 0001384  94.2511 265.8636 15.06406111152205
1 45563U 20025AJ  23016.47773187 -.00000772  00000-0 -32903-4 0  9997
2 45563  53.0536 201.1377 0001300  91.9456 268.1681 15.06404973151701
1 45563U 20025AJ  23016.54407899 -.00001257  00000-0 -65513-4 0  9991
2 45563  53.0536 200.8395 0001266  88.0499 272.0635 15.06402788152315
1 45563U 20025AJ  23016.87581500 -.00001634  00000-0 -90810-4 0  9996
2 45563  53.0540 199.3506 0001338  89.2182 270.8961 15.06399684152361
1 45563U 20025AJ  23017.53928676  .00000872  00000-0  77448-4 0  9992
2 45563  53.0552 196.3722 0001236  91.9588 268.1542 15.06396623152464
1 45563U 20025AJ  23017.53928676  .00000872  00000-0  77448-4 0  9992
2 45563  53.0552 196.3722 0001236  91.9588 268.1542 15.06396623151867
1 45563U 20025AJ  23017.87101727  .00000760  00000-0  69895-4 0  9992
2 45563  53.0552 194.8830 0001250  88.8651 271.2482 15.06401836152516
1 45563U 20025AJ  23018.46814062  .00001421  00000-0  11425-3 0  9991
2 45563  53.0550 192.2021 0001248  87.2403 272.8729 15.06398330152608
1 45563U 20025AJ  23018.73352533  .00001554  00000-0  12317-3 0  9999
2 45563  53.0549 191.0107 0001251  87.4695 272.6437 15.06401959152647
1 45563U 20025AJ  23018.73352533  .00001554  00000-0  12317-3 0  9999
2 45563  53.0549 191.0107 0001251  87.4695 272.6437 15.06401959152041
1 45563U 20025AJ  23019.46334507  .00000832  00000-0  74741-4 0  9999
2 45563  53.0544 187.7347 0001210  91.2626 268.8502 15.06395873152751
1 45563U 20025AJ  23019.46334507  .00000832  00000-0  74741-4 0  9999
2 45563  53.0544 187.7347 0001210  91.2626 268.8502 15.06395873152155
1 45563U 20025AJ  23019.72873408  .00001223  00000-0  10096-3 0  9993
2 45563  53.0545 186.5447 0001006  66.6157 293.4938 15.06392227152799
1 45563U 20025AJ  23020.72393013  .00000997  00000-0  85842-4 0  9993
2 45563  53.0558 182.0767 0001288  89.0560 271.0577 15.06402018152340
1 45563U 20025AJ  23021.45375251  .00001007  00000-0  86511-4 0  9995
2 45563  53.0568 178.8031 0001211  85.1700 274.9427 15.06391159152458
1 45563U 20025AJ  23022.38262111 -.00002261  00000-0 -13304-3 0  9992
2 45563  53.0574 174.6304 0000786 101.9494 258.1583 15.06381799152596
1 45563U 20025AJ  23023.11243251  .00000234  00000-0  34609-4 0  9996
2 45563  53.0569 171.3560 0000883  94.3336 265.7754 15.06389734152700
1 45563U 20025AJ  23023.51050317  .00001483  00000-0  11840-3 0  9997
2 45563  53.0557 169.5672 0000927  96.7601 263.3493 15.06403925152769
1 45563U 20025AJ  23024.37301418  .00003241  00000-0  23642-3 0  9990
2 45563  53.0552 165.6940 0000933  86.8708 273.2388 15.06394341152892
1 45563U 20025AJ  23025.36822970 -.00001128  00000-0 -56851-4 0  9994
2 45563  53.0553 161.2267 0000909 103.9434 256.1656 15.06387409153040
1 45563U 20025AJ  23025.56726412 -.00000904  00000-0 -41826-4 0  9997
2 45563  53.0552 160.3342 0001000  95.9882 264.1221 15.06396562153679
1 45563U 20025AJ  23025.63361042 -.00000821  00000-0 -36243-4 0  9994
2 45563  53.0553 160.0362 0000993  96.9404 263.1698 15.06397041153681
1 45563U 20025AJ  23025.63361042 -.00000821  00000-0 -36243-4 0  9994
2 45563  53.0553 160.0362 0000993  96.9404 263.1698 15.06397041153085
1 45563U 20025AJ  23026.56245848  .00000650  00000-0  62495-4 0  9998
2 45563  53.0552 155.8667 0001125 122.4966 237.6132 15.06402173153824
1 45563U 20025AJ  23026.62880408  .00000884  00000-0  78204-4 0  9996
2 45563  53.0551 155.5688 0001138 122.2411 237.8688 15.06403668153233
1 45563U 20025AJ  23027.49130338 -.00009375  00000-0 -61064-3 0  9993
2 45563  53.0552 151.6969 0001349  82.7530 277.3612 15.06441239153365
1 45563U 20025AJ  23027.55764750 -.00008935  00000-0 -58103-3 0  9992
2 45563  53.0552 151.3992 0001356  82.8254 277.2889 15.06441171153977
1 45563U 20025AJ  23028.02209311  .00000521  00000-0  53879-4 0  9999
2 45563  53.0555 149.3145 0001068  93.5996 266.5115 15.06398337153449
1 45563U 20025AJ  23028.48652616  .00000196  00000-0  32041-4 0  9995
2 45563  53.0553 147.2306 0001097  82.3368 277.7746 15.06392860153511
1 45563U 20025AJ  23028.55287216  .00000399  00000-0  45664-4 0  9993
2 45563  53.0554 146.9330 0001099  77.9651 282.1461 15.06393898154126
1 45563U 20025AJ  23028.68556285 -.00000415  00000-0 -90040-5 0  9992
2 45563  53.0563 146.3343 0001246  96.2299 263.8831 15.06399709154146
1 45563U 20025AJ  23029.68077091 -.00000016  00000-0  17807-4 0  9991
2 45563  53.0556 141.8687 0001122  87.2459 272.8659 15.06394274154296
1 45563U 20025AJ  23029.68077091 -.00000016  00000-0  17807-4 0  9991
2 45563  53.0556 141.8687 0001122  87.2459 272.8659 15.06394274153699
1 45563U 20025AJ  23030.47693371  .00001050  00000-0  89379-4 0  9996
2 45563  53.0556 138.2953 0001128  84.8350 275.2768 15.06394215154418
1 45563U 20025AJ  23030.60962327  .00000973  00000-0  84173-4 0  9991
2 45563  53.0556 137.6990 0001124  92.1592 267.9526 15.06401156154433
1 45563U 20025AJ  23030.60962327  .00000973  00000-0  84173-4 0  9991
2 45563  53.0556 137.6990 0001124  92.1592 267.9526 15.06401156153836
1 45563U 20025AJ  23031.47213509  .00001830  00000-0  14171-3 0  9991
2 45563  53.0549 133.8281 0001266  84.7804 275.3329 15.06396057154567
1 45563U 20025AJ  23031.47213509  .00001830  00000-0  14171-3 0  9991
2 45563  53.0549 133.8281 0001266  84.7804 275.3329 15.06396057153960
